{
  "links" : {
    "next" : "https://api.nasa.gov/neo/rest/v1/neo/browse?page=4&size=20&api_key=jqAGvNAwUIBu4fl9FSOjdm3V4F7hIglRzI6pdX9d",
    "prev" : "https://api.nasa.gov/neo/rest/v1/neo/browse?page=2&size=20&api_key=jqAGvNAwUIBu4fl9FSOjdm3V4F7hIglRzI6pdX9d",
    "self" : "https://api.nasa.gov/neo/rest/v1/neo/browse?page=3&size=20&api_key=jqAGvNAwUIBu4fl9FSOjdm3V4F7hIglRzI6pdX9d"
  },
  "page" : {
    "size" : 20,
    "total_elements" : 20750,
    "total_pages" : 1038,
    "number" : 3
  },
  "near_earth_objects" : [ {
    "links" : {
      "self" : "https://api.nasa.gov/neo/rest/v1/neo/3092215?api_key=jqAGvNAwUIBu4fl9FSOjdm3V4F7hIglRzI6pdX9d"
    },
    "neo_reference_id" : "3092215",
    "name" : "(1999 EO3)",
    "designation" : "1999 EO3",
    "nasa_jpl_url" : "http://ssd.jpl.nasa.gov/sbdb.cgi?sstr=3092215",
    "absolute_magnitude_h" : 19.1,
    "estimated_diameter" : {
      "kilometers" : {
        "estimated_diameter_min" : 0.4023045798,
        "estimated_diameter_max" : 0.8995803882
      },
      "meters" : {
        "estimated_diameter_min" : 402.3045798343,
        "estimated_diameter_max" : 899.5803881691
      },
      "miles" : {
        "estimated_diameter_min" : 0.2499803991,
        "estimated_diameter_max" : 0.5589731654
      },
      "feet" : {
        "estimated_diameter_min" : 1319.8969577037,
        "estimated_diameter_max" : 2951.3793207207
      }
    },
    "is_potentially_hazardous_asteroid" : false,
    "close_approach_data" : [ {
      "close_approach_date" : "1999-02-19",
      "epoch_date_close_approach" : 919411200000,
      "relative_velocity" : {
        "kilometers_per_second" : "18.5313470721",
        "kilometers_per_hour" : "66712.8494596558",
        "miles_per_hour" : "41452.77026564"
      },
      "miss_distance" : {
        "astronomical" : "0.2704422763",
        "lunar" : "105.2020492554",
        "kilometers" : "40457588",
        "miles" : "25139180"
      },
      "orbiting_body" : "Earth"
    } ],
    "orbital_data" : {
      "orbit_id" : "11",
      "orbit_determination_date" : "2017-04-06 09:17:31",
      "first_observation_date" : "1999-03-13",
      "last_observation_date" : "1999-03-23",
      "data_arc_in_days" : 10,
      "observations_used" : 31,
      "orbit_uncertainty" : "8",
      "minimum_orbit_intersection" : ".208532",
      "jupiter_tisserand_invariant" : "2.995",
      "epoch_osculation" : "2451253.5",
      "eccentricity" : ".603351276144181",
      "semi_major_axis" : "2.669508257808336",
      "inclination" : "23.75848891918933",
      "ascending_node_longitude" : "159.9488986086386",
      "orbital_period" : "1593.108408370301",
      "perihelion_distance" : "1.058857043782247",
      "perihelion_argument" : "304.4033758006142",
      "aphelion_distance" : "4.280159471834425",
      "perihelion_time" : "2451196.720562841421",
      "mean_anomaly" : "12.83063805933868",
      "mean_motion" : ".2259733224107885",
      "equinox" : "J2000",
      "orbit_class" : {
        "orbit_class_type" : "AMO",
        "orbit_class_range" : "1.017 AU < q (perihelion) < 1.3 AU",
        "orbit_class_description" : "Near-Earth asteroid orbits similar to that of 1221 Amor"
      }
    },
    "is_sentry_object" : false
  }, {
    "links" : {
      "self" : "https://api.nasa.gov/neo/rest/v1/neo/3019079?api_key=jqAGvNAwUIBu4fl9FSOjdm3V4F7hIglRzI6pdX9d"
    },
    "neo_reference_id" : "3019079",
    "name" : "(1999 FR5)",
    "designation" : "1999 FR5",
    "nasa_jpl_url" : "http://ssd.jpl.nasa.gov/sbdb.cgi?sstr=3019079",
    "absolute_magnitude_h" : 23.4,
    "estimated_diameter" : {
      "kilometers" : {
        "estimated_diameter_min" : 0.0555334912,
        "estimated_diameter_max" : 0.1241766613
      },
      "meters" : {
        "estimated_diameter_min" : 55.5334911581,
        "estimated_diameter_max" : 124.1766612574
      },
      "miles" : {
        "estimated_diameter_min" : 0.0345069009,
        "estimated_diameter_max" : 0.0771597762
      },
      "feet" : {
        "estimated_diameter_min" : 182.1964991311,
        "estimated_diameter_max" : 407.4037573197
      }
    },
    "is_potentially_hazardous_asteroid" : false,
    "close_approach_data" : [ {
      "close_approach_date" : "1999-03-12",
      "epoch_date_close_approach" : 921225600000,
      "relative_velocity" : {
        "kilometers_per_second" : "7.8749658909",
        "kilometers_per_hour" : "28349.8772073112",
        "miles_per_hour" : "17615.5112013985"
      },
      "miss_distance" : {
        "astronomical" : "0.0087932841",
        "lunar" : "3.4205875397",
        "kilometers" : "1315456.625",
        "miles" : "817386.8125"
      },
      "orbiting_body" : "Earth"
    }, {
      "close_approach_date" : "2004-04-07",
      "epoch_date_close_approach" : 1081321200000,
      "relative_velocity" : {
        "kilometers_per_second" : "14.5909755549",
        "kilometers_per_hour" : "52527.511997667",
        "miles_per_hour" : "32638.5532187726"
      },
      "miss_distance" : {
        "astronomical" : "0.2225144203",
        "lunar" : "86.5581130981",
        "kilometers" : "33287684",
        "miles" : "20684008"
      },
      "orbiting_body" : "Earth"
    } ],
    "orbital_data" : {
      "orbit_id" : "11",
      "orbit_determination_date" : "2017-04-06 09:17:31",
      "first_observation_date" : "1999-03-19",
      "last_observation_date" : "1999-03-25",
      "data_arc_in_days" : 6,
      "observations_used" : 80,
      "orbit_uncertainty" : "7",
      "minimum_orbit_intersection" : ".00823323",
      "jupiter_tisserand_invariant" : "3.854",
      "epoch_osculation" : "2458600.5",
      "eccentricity" : ".4780711550260217",
      "semi_major_axis" : "1.852646302113256",
      "inclination" : "3.857501409557741",
      "ascending_node_longitude" : "355.84675204",
      "orbital_period" : "921.0584638404822",
      "perihelion_distance" : ".9669495446072838",
      "perihelion_argument" : "148.9617661153323",
      "aphelion_distance" : "2.738343059619228",
      "perihelion_time" : "2458593.805509318863",
      "mean_anomaly" : "2.616572931929199",
      "mean_motion" : ".3908546678990708",
      "equinox" : "J2000",
      "orbit_class" : {
        "orbit_class_type" : "APO",
        "orbit_class_range" : "a (semi-major axis) > 1.0 AU; q (perihelion) < 1.017 AU",
        "orbit_class_description" : "Near-Earth asteroid orbits which cross the Earth’s orbit similar to that of 1862 Apollo"
      }
    },
    "is_sentry_object" : false
  }, {
    "links" : {
      "self" : "https://api.nasa.gov/neo/rest/v1/neo/3092217?api_key=jqAGvNAwUIBu4fl9FSOjdm3V4F7hIglRzI6pdX9d"
    },
    "neo_reference_id" : "3092217",
    "name" : "(1999 FR19)",
    "designation" : "1999 FR19",
    "nasa_jpl_url" : "http://ssd.jpl.nasa.gov/sbdb.cgi?sstr=3092217",
    "absolute_magnitude_h" : 22.0,
    "estimated_diameter" : {
      "kilometers" : {
        "estimated_diameter_min" : 0.1058168859,
        "estimated_diameter_max" : 0.2366137501
      },
      "meters" : {
        "estimated_diameter_min" : 105.8168859331,
        "estimated_diameter_max" : 236.6137501138
      },
      "miles" : {
        "estimated_diameter_min" : 0.0657515442,
        "estimated_diameter_max" : 0.1470249225
      },
      "feet" : {
        "estimated_diameter_min" : 347.1682720448,
        "estimated_diameter_max" : 776.2918559233
      }
    },
    "is_potentially_hazardous_asteroid" : true,
    "close_approach_data" : [ {
      "close_approach_date" : "1999-03-19",
      "epoch_date_close_approach" : 921830400000,
      "relative_velocity" : {
        "kilometers_per_second" : "16.7792343868",
        "kilometers_per_hour" : "60405.2437923396",
        "miles_per_hour" : "37533.4693997457"
      },
      "miss_distance" : {
        "astronomical" : "0.0432492239",
        "lunar" : "16.8239479065",
        "kilometers" : "6469992",
        "miles" : "4020266.5"
      },
      "orbiting_body" : "Earth"
    } ],
    "orbital_data" : {
      "orbit_id" : "11",
      "orbit_determination_date" : "2017-04-06 09:17:30",
      "first_observation_date" : "1999-03-23",
      "last_observation_date" : "1999-03-25",
      "data_arc_in_days" : 2,
      "observations_used" : 39,
      "orbit_uncertainty" : "9",
      "minimum_orbit_intersection" : ".0359435",
      "jupiter_tisserand_invariant" : "4.265",
      "epoch_osculation" : "2451262.5",
      "eccentricity" : ".4766341869081271",
      "semi_major_axis" : "1.544099993481658",
      "inclination" : "20.81482032259572",
      "ascending_node_longitude" : ".7454953554290111",
      "orbital_period" : "700.8281836614942",
      "perihelion_distance" : ".8081291485836836",
      "perihelion_argument" : "106.7277019490911",
      "aphelion_distance" : "2.280070838379632",
      "perihelion_time" : "2451207.309205527332",
      "mean_anomaly" : "28.35029536962403",
      "mean_motion" : ".5136779718520609",
      "equinox" : "J2000",
      "orbit_class" : {
        "orbit_class_type" : "APO",
        "orbit_class_range" : "a (semi-major axis) > 1.0 AU; q (perihelion) < 1.017 AU",
        "orbit_class_description" : "Near-Earth asteroid orbits which cross the Earth’s orbit similar to that of 1862 Apollo"
      }
    },
    "is_sentry_object" : false
  } ]
}